[{"OBJECT_NAME":"LEMUR-2-FURIAUS","OBJECT_ID":"2017-042R","EPOCH":"2026-03-09T23:04:27.745536","MEAN_MOTION":15.26272951,"ECCENTRICITY":0.00075374,"INCLINATION":97.3753,"RA_OF_ASC_NODE":248.499,"ARG_OF_PERICENTER":55.8686,"MEAN_ANOMALY":304.3266,"EPHEMERIS_TYPE":0,"CLASSIFICATION_TYPE":"U","NORAD_CAT_ID":42840,"ELEMENT_SET_NO":999,"REV_AT_EPOCH":47305,"BSTAR":0.00099966194,"MEAN_MOTION_DOT":0.00025928,"MEAN_MOTION_DDOT":0},{"OBJECT_NAME":"STARLINK-32756","OBJECT_ID":"2025-014T","EPOCH":"2026-03-09T22:58:13.856448","MEAN_MOTION":15.2762737,"ECCENTRICITY":0.00010816,"INCLINATION":42.9997,"RA_OF_ASC_NODE":153.2736,"ARG_OF_PERICENTER":273.9644,"MEAN_ANOMALY":86.1084,"EPHEMERIS_TYPE":0,"CLASSIFICATION_TYPE":"U","NORAD_CAT_ID":62752,"ELEMENT_SET_NO":999,"REV_AT_EPOCH":6329,"BSTAR":0.0011104459,"MEAN_MOTION_DOT":0.00030465,"MEAN_MOTION_DDOT":0}]
